ONEWEB-0271             
1 48989U 21060Y   25249.85418606  .00000135  00000+0  31869-3 0  9995
2 48989  87.8993 285.2395 0001651  87.9331 272.1989 13.16594075202386
ONEWEB-0272             
1 48990U 21060Z   25249.80034742  .00000134  00000+0  31710-3 0  9991
2 48990  87.8986 285.2788 0001774  85.2077 274.9256 13.16596049202324
ONEWEB-0273             
1 48991U 21060AA  25249.82252752  .00000032  00000+0  51069-4 0  9994
2 48991  87.8994 285.2622 0001729  94.2420 265.8908 13.16593682202304
ONEWEB-0274             
1 48992U 21060AB  25249.84785601  .00000095  00000+0  21389-3 0  9991
2 48992  87.8984 285.2888 0002051  82.7553 277.3812 13.16593709202342
ONEWEB-0275             
1 48993U 21060AC  25249.83676461  .00000026  00000+0  35457-4 0  9990
2 48993  87.8990 285.2540 0001863  90.2333 269.9011 13.16593768202270
ONEWEB-0276             
1 48994U 21060AD  25249.79402156  .00000154  00000+0  36813-3 0  9992
2 48994  87.8993 285.2595 0001737  97.0974 263.0354 13.16595176202281
ONEWEB-0277             
1 48995U 21060AE  25249.80667805  .00000052  00000+0  10186-3 0  9991
2 48995  87.8989 285.2905 0001592  84.8868 275.2445 13.16594984202278
ONEWEB-0278             
1 48996U 21060AF  25249.79718007  .00000249  00000+0  61720-3 0  9999
2 48996  87.8993 285.2553 0001896 100.7400 259.3944 13.16596882202401
ONEWEB-0279             
1 48997U 21060AG  25249.80509145  .00000080  00000+0  17479-3 0  9998
2 48997  87.8994 285.2497 0001723  84.1215 276.0112 13.16596250202332
ONEWEB-0280             
1 48998U 21060AH  25249.82013710  .00000012  00000+0 -14961-5 0  9990
2 48998  87.8994 285.2548 0001591  99.9207 260.2104 13.16593034202274
ONEWEB-0281             
1 48999U 21060AJ  25249.82568795  .00000036  00000+0  61151-4 0  9996
2 48999  87.8993 285.2504 0001999  90.2375 269.8986 13.16593487202341
ONEWEB-0282             
1 49000U 21060AK  25249.62777631  .00000220  00000+0  54251-3 0  9996
2 49000  87.8994 285.2995 0001663  93.7461 266.3860 13.16594603202290
ONEWEB-0283             
1 49001U 21060AL  25249.84468306  .00000158  00000+0  38035-3 0  9999
2 49001  87.8987 285.2592 0001721  89.7495 270.3833 13.16594839202334
ONEWEB-0284             
1 49002U 21060AM  25249.83835552  .00000063  00000+0  13186-3 0  9995
2 49002  87.9002 285.2405 0001870 103.1191 257.0149 13.16594156202318
ONEWEB-0285             
1 49075U 21075A   25249.91547918 -.00000206  00000+0 -60671-3 0  9998
2 49075  87.8887  46.9429 0001646  94.5693 265.5624 13.12441714198051
ONEWEB-0286             
1 49076U 21075B   25249.89734554  .00000372  00000+0  99759-3 0  9991
2 49076  87.8899  46.9809 0001861  93.6068 266.5274 13.12441534197402
ONEWEB-0287             
1 49077U 21075C   25249.92472306  .00000118  00000+0  27158-3 0  9992
2 49077  87.9041  62.2122 0002028  93.8828 266.2535 13.17646558196329
ONEWEB-0288             
1 49078U 21075D   25249.87316530  .00000178  00000+0  45984-3 0  9996
2 49078  87.8890  46.9461 0001700  98.7976 261.3345 13.12444780198022
ONEWEB-0289             
1 49079U 21075E   25249.88747005  .00000067  00000+0  13830-3 0  9995
2 49079  87.9027  62.2459 0001454 103.7408 256.3886 13.17649131196896
ONEWEB-0290             
1 49080U 21075F   25249.93654579  .00000070  00000+0  14588-3 0  9991
2 49080  87.9035  62.1900 0001166 102.8843 257.2419 13.17648614196314
ONEWEB-0291             
1 49081U 21075G   25249.92137901  .00000097  00000+0  21652-3 0  9995
2 49081  87.9040  62.1975 0001858 103.0515 257.0824 13.17650938196309
ONEWEB-0293             
1 49082U 21075H   25249.87074329  .00000105  00000+0  23778-3 0  9995
2 49082  87.9029  62.2376 0001611  94.4230 265.7086 13.17651467196323
ONEWEB-0294             
1 49083U 21075J   25249.87965866  .00000377  00000+0  10136-2 0  9995
2 49083  87.8889  46.9453 0001442 110.1374 249.9910 13.12444152197416
ONEWEB-0295             
1 49084U 21075K   25249.94582529  .00000075  00000+0  16019-3 0  9997
2 49084  87.9037  62.2254 0001935  99.9184 260.2166 13.17648163196290
ONEWEB-0296             
1 49085U 21075L   25249.93641977 -.00000299  00000+0 -86678-3 0  9998
2 49085  87.8889  46.9396 0001881 111.1538 248.9791 13.12444043197420
ONEWEB-0297             
1 49086U 21075M   25249.89100959  .00000514  00000+0  13925-2 0  9996
2 49086  87.8881  46.9868 0001776  94.2048 265.9283 13.12443672198026
ONEWEB-0298             
1 49087U 21075N   25249.87425037  .00000070  00000+0  14730-3 0  9995
2 49087  87.9027  62.2347 0001735  88.8475 271.2855 13.17651885196318
ONEWEB-0299             
1 49088U 21075P   25249.87580029  .00000096  00000+0  21476-3 0  9992
2 49088  87.9045  62.1905 0001942  91.7877 268.3477 13.17650262196299
ONEWEB-0300             
1 49089U 21075Q   25249.88290331  .00000412  00000+0  11108-2 0  9990
2 49089  87.8886  46.9410 0001794  83.2124 276.9209 13.12443539198044
ONEWEB-0301             
1 49090U 21075R   25249.94291282 -.00000075  00000+0 -24460-3 0  9998
2 49090  87.8886  46.9335 0001827  80.2354 279.8981 13.12444181197414
ONEWEB-0302             
1 49091U 21075S   25249.92992402 -.00000384  00000+0 -11027-2 0  9996
2 49091  87.8889  46.9420 0001624 106.7787 253.3520 13.12444168197390
ONEWEB-0304             
1 49092U 21075T   25249.92642787  .00000083  00000+0  18065-3 0  9999
2 49092  87.9038  62.2112 0001802  94.3755 265.7583 13.17649188196278
ONEWEB-0305             
1 49093U 21075U   25249.91966896  .00000098  00000+0  21867-3 0  9999
2 49093  87.9040  62.1892 0002097  98.2172 261.9198 13.17651316196309
ONEWEB-0308             
1 49094U 21075V   25249.92344419 -.00000335  00000+0 -96731-3 0  9990
2 49094  87.8890  46.9348 0001675  93.2089 266.9231 13.12443253197400
ONEWEB-0309             
1 49095U 21075W   25249.92304491  .00000100  00000+0  22318-3 0  9995
2 49095  87.9038  62.2057 0001528 105.1312 254.9988 13.17648321196271
ONEWEB-0310             
1 49096U 21075X   25249.93804091 -.00000255  00000+0 -74513-3 0  9995
2 49096  87.8884  46.9775 0001633  97.1092 263.0222 13.12444414198038
ONEWEB-0311             
1 49097U 21075Y   25249.92979860  .00000086  00000+0  18883-3 0  9990
2 49097  87.9033  62.2024 0002080  94.2639 265.8730 13.17648981196320
ONEWEB-0312             
1 49098U 21075Z   25249.94498618  .00000049  00000+0  93096-4 0  9999
2 49098  87.9030  62.2313 0001864 101.6890 258.4451 13.17648764196305
ONEWEB-0313             
1 49099U 21075AA  25249.87398469  .00000102  00000+0  23049-3 0  9995
2 49099  87.9025  62.2575 0001832  93.2129 266.9212 13.17649793196285
ONEWEB-0314             
1 49100U 21075AB  25249.91629983  .00000082  00000+0  17810-3 0  9997
2 49100  87.9042  62.1866 0001916 100.8280 259.3067 13.17649015196264
ONEWEB-0315             
1 49101U 21075AC  25249.91209125 -.00000100  00000+0 -31242-3 0  9998
2 49101  87.8885  46.9279 0002097  92.0164 268.1205 13.12441318198019
ONEWEB-0316             
1 49102U 21075AD  25249.91188407 -.00000245  00000+0 -65467-3 0  9994
2 49102  87.9174  31.7191 0001955  93.5111 266.6245 13.18682339199875
ONEWEB-0317             
1 49103U 21075AE  25249.90560839  .00000175  00000+0  45043-3 0  9995
2 49103  87.8886  46.9438 0000955 110.7235 249.3996 13.12442048198038
ONEWEB-0318             
1 49104U 21075AF  25249.90859493  .00000098  00000+0  21649-3 0  9993
2 49104  87.9179  31.7063 0001949  95.3618 264.7736 13.18685422199831
ONEWEB-0319             
1 49105U 21075AG  25249.93149141  .00000098  00000+0  21883-3 0  9999
2 49105  87.9031  62.2276 0002136  94.6327 265.5048 13.17648913196309
ONEWEB-0323             
1 49106U 21075AH  25249.89587816  .00000385  00000+0  10353-2 0  9998
2 49106  87.8889  46.9322 0002377  99.2633 260.8764 13.12442309197398
ONEWEB-0329             
1 49107U 21075AJ  25249.93991918  .00000057  00000+0  11258-3 0  9998
2 49107  87.9029  62.2299 0001921  95.2681 264.8670 13.17650740196285
ONEWEB-0330             
1 49108U 21075AK  25249.94076294  .00000096  00000+0  21385-3 0  9996
2 49108  87.9031  62.2332 0001702  99.4337 260.6987 13.17647983196323
ONEWEB-0292             
1 49186U 21083A   25249.86108286 -.00000020  00000+0 -90581-4 0  9993
2 49186  87.9021  16.5500 0001903  98.2397 261.8948 13.13471350193734
ONEWEB-0303             
1 49187U 21083B   25249.90528954  .00000116  00000+0  26251-3 0  9993
2 49187  87.9176  31.7072 0001906  96.0584 264.0766 13.18687592192640
ONEWEB-0306             
1 49188U 21083C   25249.89539398  .00000045  00000+0  81121-4 0  9995
2 49188  87.9180  31.6950 0001517  96.6099 263.5206 13.18687047192687
ONEWEB-0307             
1 49189U 21083D   25249.85514056 -.00000110  00000+0 -33741-3 0  9995
2 49189  87.9011  16.5491 0001546 107.2540 252.8758 13.13469282193739
ONEWEB-0320             
1 49190U 21083E   25249.90198446  .00000070  00000+0  14423-3 0  9993
2 49190  87.9178  31.7219 0001752  96.3803 263.7528 13.18685438192644
ONEWEB-0321             
1 49191U 21083F   25249.71902022  .00000100  00000+0  21377-3 0  9996
2 49191  87.9281 330.9407 0001565 100.7303 259.4006 13.20770931199411
ONEWEB-0322             
1 49192U 21083G   25249.85092342 -.00000188  00000+0 -54901-3 0  9994
2 49192  87.9020  16.5458 0001337  99.8797 260.2483 13.13471957193723
ONEWEB-0324             
1 49193U 21083H   25249.88879011  .00000036  00000+0  58835-4 0  9995
2 49193  87.9179  31.7042 0001730 101.1051 259.0275 13.18685261192661
ONEWEB-0325             
1 49194U 21083J   25249.89208846  .00000050  00000+0  93861-4 0  9993
2 49194  87.9181  31.7211 0001648  94.3910 265.7411 13.18687358192674
ONEWEB-0326             
1 49195U 21083K   25249.90707045  .00000025  00000+0  31322-4 0  9997
2 49195  87.9175  31.7061 0002039  92.5810 267.5555 13.18684990192662
ONEWEB-0327             
1 49196U 21083L   25249.90681008  .00000152  00000+0  35306-3 0  9994
2 49196  87.9170  31.7334 0002014  89.0088 271.1275 13.18689527192685
